{
    "links": {
        "self": "http://www.neowsapp.com/rest/v1/neo/54087861?api_key=iIulBulltgU6a56xZRHN4H3l9WmuAYTsLGpBGhQ2"
    },
    "id": "54087861",
    "neo_reference_id": "54087861",
    "name": "(2020 VA6)",
    "designation": "2020 VA6",
    "nasa_jpl_url": "http://ssd.jpl.nasa.gov/sbdb.cgi?sstr=54087861",
    "absolute_magnitude_h": 23.548,
    "estimated_diameter": {
        "kilometers": {
            "estimated_diameter_min": 0.0518746258,
            "estimated_diameter_max": 0.1159951895
        },
        "meters": {
            "estimated_diameter_min": 51.8746257616,
            "estimated_diameter_max": 115.9951895103
        },
        "miles": {
            "estimated_diameter_min": 0.0322333881,
            "estimated_diameter_max": 0.0720760469
        },
        "feet": {
            "estimated_diameter_min": 170.1923471837,
            "estimated_diameter_max": 380.561657553
        }
    },
    "is_potentially_hazardous_asteroid": false,
    "close_approach_data": [
        {
            "close_approach_date": "2020-10-05",
            "close_approach_date_full": "2020-Oct-05 06:17",
            "epoch_date_close_approach": 1601878620000,
            "relative_velocity": {
                "kilometers_per_second": "7.139464006",
                "kilometers_per_hour": "25702.070421712",
                "miles_per_hour": "15970.267035091"
            },
            "miss_distance": {
                "astronomical": "0.1586860802",
                "lunar": "61.7288851978",
                "kilometers": "23739099.596569174",
                "miles": "14750792.4859716412"
            },
            "orbiting_body": "Earth"
        }
    ],
    "orbital_data": {
        "orbit_id": "5",
        "orbit_determination_date": "2020-12-06 05:25:14",
        "first_observation_date": "2020-11-14",
        "last_observation_date": "2020-12-05",
        "data_arc_in_days": 21,
        "observations_used": 27,
        "orbit_uncertainty": "8",
        "minimum_orbit_intersection": ".112336",
        "jupiter_tisserand_invariant": "4.086",
        "epoch_osculation": "2459171.5",
        "eccentricity": ".4326501854401046",
        "semi_major_axis": "1.693154621389654",
        "inclination": "10.19230448557119",
        "ascending_node_longitude": "63.28645557796891",
        "orbital_period": "804.7173359140402",
        "perihelion_distance": ".9606109604666502",
        "perihelion_argument": "283.1733804673236",
        "aphelion_distance": "2.425698282312658",
        "perihelion_time": "2459102.574711602184",
        "mean_anomaly": "30.83455856587175",
        "mean_motion": ".4473620536471892",
        "equinox": "J2000",
        "orbit_class": {
            "orbit_class_type": "APO",
            "orbit_class_description": "Near-Earth asteroid orbits which cross the Earth’s orbit similar to that of 1862 Apollo",
            "orbit_class_range": "a (semi-major axis) > 1.0 AU; q (perihelion) < 1.017 AU"
        }
    },
    "is_sentry_object": false
}